0 IRIDIUM 33 DEB
1 35916U 97051TZ  13281.29573036  .00009254  00000-0  22093-2 0  2885
2 35916 086.3868 123.0396 0007137 234.4163 248.9717 14.53579772217413
0 IRIDIUM 33 DEB
1 35916U 97051TZ  13283.82999106  .00016646  00000-0  39677-2 0  2896
2 35916 086.3871 121.9438 0007092 222.9304 193.7592 14.53648630217788
0 IRIDIUM 33 DEB
1 35916U 97051TZ  13287.01450043  .00012217  00000-0  29085-2 0  2918
2 35916 086.3871 120.5667 0007056 208.4178 302.9299 14.53716334218242
0 IRIDIUM 33 DEB
1 35916U 97051TZ  13288.50575556  .00020322  00000-0  48305-2 0  2923
2 35916 086.3858 119.9217 0007181 202.6205 188.1376 14.53763787218464
0 IRIDIUM 33 DEB
1 35916U 97051TZ  13289.81822024  .00017217  00000-0  40902-2 0  2938
2 35916 086.3856 119.3538 0007249 197.5292 217.7860 14.53801975218655
0 IRIDIUM 33 DEB
1 35916U 97051TZ  13291.00834304  .00016011  00000-0  38010-2 0  2945
2 35916 086.3850 118.8386 0007326 193.0623 327.0627 14.53840505218826
0 IRIDIUM 33 DEB
1 35916U 97051TZ  13292.77883222  .00016521  00000-0  39179-2 0  2957
2 35916 086.3850 118.0722 0007447 186.5854 234.1727 14.53886216219086
0 IRIDIUM 33 DEB
1 35916U 97051TZ  13293.81031370  .00018392  00000-0  43585-2 0  2967
2 35916 086.3853 117.6261 0007458 182.9866 233.1336 14.53913455219235
0 IRIDIUM 33 DEB
1 35916U 97051TZ  13295.26850815  .00020806  00000-0  49249-2 0  2978
2 35916 086.3850 116.9943 0007549 177.6698 305.9998 14.53955348219448
